{"type":"FeatureCollection", "features": [
{"type":"Feature","geometry":{"type":"Polygon","coordinates":[[[14.8104,50.8584],[14.6346,50.9094],[14.4935,51.0167],[14.2875,51.0368],[14.3819,50.9209],[13.8345,50.7237],[13.6019,50.7122],[13.4479,50.5973],[13.2323,50.582],[13.1601,50.497],[13.0096,50.4927],[12.6788,50.3937],[12.5102,50.3888],[12.3365,50.2586],[12.1073,50.2909],[12.2469,50.045],[12.4682,49.9702],[12.5241,49.905],[12.3836,49.7429],[12.623,49.5098],[12.6435,49.4295],[12.7978,49.3278],[12.9998,49.2949],[13.1785,49.1183],[13.2995,49.0936],[13.4823,48.9376],[13.6087,48.9462],[13.8157,48.7664],[13.9823,48.7065],[14.0748,48.5917],[14.3157,48.5579],[14.4436,48.6365],[14.6957,48.5895],[14.8004,48.7765],[14.9193,48.7616],[14.9821,49.0079],[15.2629,48.9826],[15.6813,48.8585],[15.8185,48.8723],[16.0323,48.7581],[16.3583,48.7273],[16.4357,48.7945],[16.873,48.719],[16.945,48.6042],[17.0253,48.7463],[17.1675,48.8598],[17.5351,48.813],[17.8603,48.9217],[17.9141,49.0105],[18.1029,49.0923],[18.19,49.2769],[18.3246,49.3113],[18.5356,49.4817],[18.8332,49.5103],[18.7735,49.6758],[18.6373,49.7003],[18.5592,49.9072],[18.3069,49.9097],[18.0916,50.0172],[17.8394,49.9736],[17.5842,50.1459],[17.6064,50.2582],[17.3348,50.27],[17.1854,50.3757],[16.9158,50.4311],[16.9603,50.232],[16.8177,50.1868],[16.7012,50.0949],[16.3342,50.3719],[16.1902,50.4242],[16.3826,50.5142],[16.3316,50.644],[15.8482,50.6752],[15.7674,50.7442],[15.4418,50.8002],[15.3497,50.7837],[15.2271,50.9774],[14.9965,51.0078],[14.9821,50.8591],[14.8104,50.8584]]]},"properties":{"code":"CZ"}},
{"type":"Feature","geometry":{"type":"MultiPolygon","coordinates":[[[[13.8157,48.7664],[13.6087,48.9462],[13.4823,48.9376],[13.2995,49.0936],[13.1785,49.1183],[12.9998,49.2949],[12.7978,49.3278],[12.6435,49.4295],[12.623,49.5098],[12.3836,49.7429],[12.5241,49.905],[12.4682,49.9702],[12.2469,50.045],[12.1073,50.2909],[12.3365,50.2586],[12.5102,50.3888],[12.6788,50.3937],[13.0096,50.4927],[13.1601,50.497],[13.2323,50.582],[13.4479,50.5973],[13.6019,50.7122],[13.8345,50.7237],[14.3819,50.9209],[14.2875,51.0368],[14.4935,51.0167],[14.6346,50.9094],[14.8104,50.8584],[14.9553,51.064],[15.0195,51.2717],[14.9451,51.4492],[14.7322,51.5158],[14.7195,51.6756],[14.5858,51.8039],[14.6956,51.9315],[14.7614,52.0767],[14.6864,52.121],[14.6969,52.2535],[14.6066,52.2758],[14.5398,52.4219],[14.6448,52.5769],[14.216,52.818],[14.1445,52.9599],[14.3433,53.0486],[14.4094,53.2724],[14.3042,53.5085],[14.2639,53.7],[13.9842,53.774],[13.8185,53.878],[13.8901,53.9129],[13.7581,54.031],[13.8081,54.1047],[13.6834,54.168],[13.4793,54.1252],[13.2888,54.2343],[13.1149,54.28],[13.0088,54.4381],[12.876,54.3654],[12.502,54.4736],[12.3421,54.3039],[12.1089,54.183],[11.6579,54.1422],[11.4917,54.0023],[11.459,53.9167],[11.2429,53.9452],[11.1751,54.018],[10.8874,53.9639],[10.7526,54.0439],[11.0666,54.1839],[11.0774,54.3422],[10.9353,54.3795],[10.7771,54.3151],[10.2039,54.461],[10.02,54.5458],[9.9705,54.7626],[9.5544,54.8471],[9.4375,54.8104],[8.8242,54.9059],[8.6608,54.8963],[8.6887,54.7353],[9.0116,54.5063],[8.8607,54.4138],[8.6292,54.3877],[8.6519,54.2748],[8.888,54.3039],[8.8128,54.1805],[9.0183,54.0979],[8.8607,53.831],[8.6846,53.8885],[8.5733,53.8577],[8.4839,53.6836],[8.3485,53.6129],[8.3205,53.5092],[8.2053,53.4107],[8.0588,53.502],[8.168,53.5532],[7.9514,53.7219],[7.2261,53.6665],[7.0868,53.5869],[7.0233,53.4505],[7.0752,53.3376],[7.1946,53.245],[7.1836,52.9661],[7.0799,52.8544],[7.0367,52.6474],[6.7018,52.6191],[6.6951,52.4756],[7.0482,52.3651],[7.0263,52.2306],[6.7659,52.1084],[6.675,52.0348],[6.804,51.9844],[6.7167,51.8993],[6.3825,51.8276],[6.2252,51.8625],[5.928,51.8067],[5.9393,51.7319],[6.0992,51.6445],[6.1933,51.5093],[6.1836,51.3357],[6.0652,51.2316],[6.1324,51.1398],[5.9829,51.0747],[6.0637,50.9075],[5.9949,50.7499],[6.2329,50.5871],[6.3187,50.4817],[6.3377,50.3681],[6.2534,50.2568],[6.1468,50.214],[6.1175,50.1205],[6.0964,50.0486],[6.2227,49.8871],[6.5001,49.7945],[6.4917,49.7008],[6.3508,49.5666],[6.3453,49.4553],[6.4945,49.4355],[6.7256,49.1556],[6.8435,49.2111],[7.2681,49.1056],[7.3911,49.17],[7.6488,49.0357],[7.9319,49.0348],[8.1887,48.9657],[8.1027,48.8213],[7.9701,48.7573],[7.8103,48.615],[7.752,48.3553],[7.5726,48.095],[7.6189,48.0027],[7.5259,47.7832],[7.5218,47.6704],[7.586,47.5846],[7.6834,47.5443],[7.8197,47.5953],[8.0872,47.5674],[8.2511,47.622],[8.5582,47.8012],[8.7976,47.72],[8.9062,47.6518],[9.0166,47.6789],[9.2732,47.6501],[9.5475,47.5345],[9.9487,47.5242],[10.3059,47.3022],[10.452,47.4388],[10.431,47.5422],[10.6079,47.5623],[10.7903,47.5161],[11.0837,47.3895],[11.2588,47.4007],[11.4126,47.5061],[11.5512,47.5137],[11.6205,47.5897],[11.8203,47.5753],[11.9359,47.6107],[12.1656,47.604],[12.2023,47.6778],[12.4241,47.6916],[12.4966,47.6289],[12.7448,47.6654],[12.7789,47.5548],[12.9425,47.4705],[13.0373,47.493],[13.0748,47.6467],[12.892,47.7235],[12.9912,47.8471],[12.7602,48.0649],[12.745,48.1206],[13.0328,48.2636],[13.2742,48.3071],[13.4056,48.3766],[13.5207,48.5846],[13.7143,48.5232],[13.8024,48.6117],[13.8157,48.7664]]],[[[14.2101,53.9385],[14.0513,54.0051],[13.9019,53.9698],[13.9317,53.8993],[13.8753,53.8441],[14.2008,53.8782],[14.2101,53.9385]]],[[[13.6983,54.3921],[13.5755,54.4719],[13.6405,54.5857],[13.3748,54.5256],[13.1664,54.5494],[13.2512,54.3869],[13.1155,54.3381],[13.347,54.2375],[13.4997,54.3449],[13.6983,54.3921]]]]},"properties":{"code":"DE"}},
{"type":"Feature","geometry":{"type":"Polygon","coordinates":[[[22.8776,47.9467],[22.831,48.0724],[22.6001,48.1011],[22.4814,48.2426],[22.3571,48.2431],[22.2718,48.4035],[22.1328,48.4048],[21.7277,48.3409],[21.4246,48.5613],[21.1093,48.4891],[20.7841,48.5691],[20.4817,48.5261],[20.4817,48.4787],[20.2724,48.2525],[19.8843,48.1296],[19.6232,48.227],[19.503,48.1894],[19.4282,48.0859],[18.8385,48.04],[18.7548,47.9518],[18.7677,47.8223],[18.2359,47.7539],[17.8257,47.75],[17.472,47.8888],[17.3379,47.9987],[17.1483,48.0054],[17.0395,47.8374],[17.0548,47.702],[16.7975,47.6755],[16.6098,47.7506],[16.4819,47.639],[16.6302,47.622],[16.688,47.5226],[16.6409,47.4529],[16.425,47.3511],[16.4692,47.2932],[16.4128,47.1872],[16.5095,47.1375],[16.4372,47.0318],[16.2749,47.0043],[16.094,46.8628],[16.272,46.864],[16.3764,46.6291],[16.5153,46.5017],[16.8377,46.3819],[16.9748,46.2106],[17.2486,46.0802],[17.3453,45.9557],[17.5911,45.9362],[17.6565,45.8454],[17.8898,45.7921],[18.2112,45.7854],[18.4117,45.7432],[18.5735,45.8167],[18.6743,45.9104],[18.7633,45.884],[18.9013,45.9312],[19.2635,45.9814],[19.5499,46.1642],[19.7905,46.1291],[19.9292,46.1635],[20.2428,46.1081],[20.2832,46.1438],[20.664,46.1378],[20.8196,46.2717],[21.0515,46.2361],[21.1645,46.3183],[21.3162,46.6166],[21.4836,46.6849],[21.5029,46.8053],[21.6485,46.943],[21.6328,47.0227],[21.826,47.1851],[21.8622,47.2974],[22.0016,47.3938],[21.9889,47.4929],[22.1485,47.5793],[22.2617,47.7158],[22.563,47.7572],[22.7458,47.825],[22.8776,47.9467]]]},"properties":{"code":"HU"}},
{"type":"Feature","geometry":{"type":"Polygon","coordinates":[[[22.5396,49.0722],[22.3901,49.093],[22.0124,49.2111],[21.9932,49.2782],[21.8196,49.3772],[21.6012,49.4265],[21.4279,49.4098],[21.2744,49.4473],[21.0535,49.4145],[20.9424,49.2959],[20.7783,49.3312],[20.6895,49.4005],[20.5221,49.3744],[20.3295,49.3918],[20.1302,49.3039],[20.07,49.1831],[19.7518,49.2191],[19.7693,49.3931],[19.627,49.4019],[19.4434,49.6018],[19.2487,49.5163],[19.1725,49.4023],[18.9623,49.3892],[18.9322,49.5043],[18.8332,49.5103],[18.5356,49.4817],[18.3246,49.3113],[18.19,49.2769],[18.1029,49.0923],[17.9141,49.0105],[17.8603,48.9217],[17.5351,48.813],[17.1675,48.8598],[17.0253,48.7463],[16.945,48.6042],[16.8445,48.3656],[16.9506,48.2766],[16.9819,48.1613],[17.1483,48.0054],[17.3379,47.9987],[17.472,47.8888],[17.8257,47.75],[18.2359,47.7539],[18.7677,47.8223],[18.7548,47.9518],[18.8385,48.04],[19.4282,48.0859],[19.503,48.1894],[19.6232,48.227],[19.8843,48.1296],[20.2724,48.2525],[20.4817,48.4787],[20.4817,48.5261],[20.7841,48.5691],[21.1093,48.4891],[21.4246,48.5613],[21.7277,48.3409],[22.1328,48.4048],[22.1537,48.5859],[22.3225,48.7003],[22.449,48.9714],[22.5396,49.0722]]]},"properties":{"code":"SK"}},
{"type":"Feature","geometry":{"type":"Polygon","coordinates":[[[18.8332,49.5103],[18.9322,49.5043],[18.9623,49.3892],[19.1725,49.4023],[19.2487,49.5163],[19.4434,49.6018],[19.627,49.4019],[19.7693,49.3931],[19.7518,49.2191],[20.07,49.1831],[20.1302,49.3039],[20.3295,49.3918],[20.5221,49.3744],[20.6895,49.4005],[20.7783,49.3312],[20.9424,49.2959],[21.0535,49.4145],[21.2744,49.4473],[21.4279,49.4098],[21.6012,49.4265],[21.8196,49.3772],[21.9932,49.2782],[22.0124,49.2111],[22.3901,49.093],[22.5396,49.0722],[22.7445,49.0455],[22.7057,49.1688],[22.7242,49.3671],[22.6409,49.5288],[23.1015,49.9571],[23.7475,50.3894],[23.9813,50.4048],[24.1065,50.5386],[24.0749,50.6902],[23.9699,50.8252],[24.1302,50.8689],[23.9117,51.0068],[23.8747,51.1361],[23.7427,51.2163],[23.634,51.3393],[23.6976,51.4044],[23.6062,51.5174],[23.5399,51.6071],[23.5604,51.7545],[23.6764,51.9941],[23.6375,52.0845],[23.3958,52.1996],[23.2123,52.2317],[23.1656,52.2894],[23.3923,52.5096],[23.569,52.5859],[23.869,52.67],[23.9225,52.7426],[23.8937,53.152],[23.783,53.2709],[23.5909,53.6113],[23.4856,53.9393],[23.4325,54.1693],[22.9733,54.3754],[22.7672,54.3563],[22.6984,54.3429],[20.9296,54.3978],[19.6803,54.4367],[19.6095,54.4567],[19.3772,54.3776],[19.0021,54.3449],[18.7173,54.382],[18.5881,54.4337],[18.5706,54.5504],[18.4292,54.7817],[18.3169,54.8383],[17.8854,54.8241],[17.3374,54.749],[17.0358,54.6671],[16.94,54.606],[16.5696,54.5572],[16.324,54.4013],[16.2201,54.2766],[15.8597,54.25],[15.6658,54.1984],[15.2883,54.1389],[14.7819,54.0346],[14.367,53.917],[14.2101,53.9385],[14.2008,53.8782],[14.2747,53.8308],[14.5759,53.8548],[14.5449,53.704],[14.2639,53.7],[14.3042,53.5085],[14.4094,53.2724],[14.3433,53.0486],[14.1445,52.9599],[14.216,52.818],[14.6448,52.5769],[14.5398,52.4219],[14.6066,52.2758],[14.6969,52.2535],[14.6864,52.121],[14.7614,52.0767],[14.6956,51.9315],[14.5858,51.8039],[14.7195,51.6756],[14.7322,51.5158],[14.9451,51.4492],[15.0195,51.2717],[14.9553,51.064],[14.8104,50.8584],[14.9821,50.8591],[14.9965,51.0078],[15.2271,50.9774],[15.3497,50.7837],[15.4418,50.8002],[15.7674,50.7442],[15.8482,50.6752],[16.3316,50.644],[16.3826,50.5142],[16.1902,50.4242],[16.3342,50.3719],[16.7012,50.0949],[16.8177,50.1868],[16.9603,50.232],[16.9158,50.4311],[17.1854,50.3757],[17.3348,50.27],[17.6064,50.2582],[17.5842,50.1459],[17.8394,49.9736],[18.0916,50.0172],[18.3069,49.9097],[18.5592,49.9072],[18.6373,49.7003],[18.7735,49.6758],[18.8332,49.5103]]]},"properties":{"code":"PL"}},
{"type":"Feature","geometry":{"type":"Polygon","coordinates":[[[16.945,48.6042],[16.873,48.719],[16.4357,48.7945],[16.3583,48.7273],[16.0323,48.7581],[15.8185,48.8723],[15.6813,48.8585],[15.2629,48.9826],[14.9821,49.0079],[14.9193,48.7616],[14.8004,48.7765],[14.6957,48.5895],[14.4436,48.6365],[14.3157,48.5579],[14.0748,48.5917],[13.9823,48.7065],[13.8157,48.7664],[13.8024,48.6117],[13.7143,48.5232],[13.5207,48.5846],[13.4056,48.3766],[13.2742,48.3071],[13.0328,48.2636],[12.745,48.1206],[12.7602,48.0649],[12.9912,47.8471],[12.892,47.7235],[13.0748,47.6467],[13.0373,47.493],[12.9425,47.4705],[12.7789,47.5548],[12.7448,47.6654],[12.4966,47.6289],[12.4241,47.6916],[12.2023,47.6778],[12.1656,47.604],[11.9359,47.6107],[11.8203,47.5753],[11.6205,47.5897],[11.5512,47.5137],[11.4126,47.5061],[11.2588,47.4007],[11.0837,47.3895],[10.7903,47.5161],[10.6079,47.5623],[10.431,47.5422],[10.452,47.4388],[10.3059,47.3022],[9.9487,47.5242],[9.5475,47.5345],[9.6495,47.4097],[9.5212,47.2628],[9.6157,47.1068],[9.5812,47.0569],[9.858,47.0155],[9.8624,46.9398],[10.1113,46.8471],[10.3679,46.9955],[10.4538,46.8644],[10.6625,46.861],[10.7548,46.7908],[10.9969,46.7691],[11.0919,46.9124],[11.3138,46.9873],[11.5965,47.0004],[11.7464,46.9725],[11.9436,47.0382],[12.1112,46.993],[12.2691,46.7886],[12.405,46.6901],[12.8304,46.6096],[13.0645,46.598],[13.2311,46.5522],[13.478,46.5636],[13.701,46.5197],[14.05,46.4844],[14.1499,46.4401],[14.5022,46.4184],[14.7886,46.5066],[14.8504,46.6011],[15.062,46.6496],[15.3881,46.6456],[15.4627,46.6146],[15.6521,46.7108],[15.9705,46.743],[15.9876,46.83],[16.094,46.8628],[16.2749,47.0043],[16.4372,47.0318],[16.5095,47.1375],[16.4128,47.1872],[16.4692,47.2932],[16.425,47.3511],[16.6409,47.4529],[16.688,47.5226],[16.6302,47.622],[16.4819,47.639],[16.6098,47.7506],[16.7975,47.6755],[17.0548,47.702],[17.0395,47.8374],[17.1483,48.0054],[16.9819,48.1613],[16.9506,48.2766],[16.8445,48.3656],[16.945,48.6042]]]},"properties":{"code":"AT"}},
{"type":"Feature","geometry":{"type":"MultiPolygon","coordinates":[[[[7.0221,45.9253],[6.8008,45.8265],[6.7959,45.7181],[6.9634,45.6407],[6.9828,45.5111],[7.1607,45.4109],[7.0622,45.2185],[6.9587,45.2098],[6.8441,45.1301],[6.7364,45.1573],[6.6027,45.1035],[6.7235,45.0134],[6.7279,44.9287],[6.866,44.8557],[6.9828,44.847],[7.019,44.7389],[6.8388,44.5029],[6.8661,44.3721],[7.0335,44.2429],[7.3808,44.1229],[7.6247,44.1801],[7.6919,44.0846],[7.4779,43.8655],[7.5023,43.7922],[7.695,43.7912],[7.9597,43.8529],[8.1447,43.9526],[8.2332,44.1036],[8.4082,44.1935],[8.4661,44.3043],[8.7624,44.4321],[9.2306,44.3537],[9.4844,44.2438],[9.7718,44.0794],[9.8447,44.1086],[10.1058,44.0168],[10.264,43.8094],[10.3263,43.4769],[10.437,43.3886],[10.5466,43.1471],[10.4995,42.9405],[10.6814,42.949],[10.7777,42.8947],[10.7313,42.8044],[10.99,42.7103],[11.1869,42.5208],[11.1642,42.4398],[11.3766,42.4069],[11.6582,42.2794],[11.8275,42.0342],[11.9168,42.0379],[12.1475,41.9035],[12.239,41.7363],[12.448,41.6308],[12.6194,41.4591],[12.8936,41.3993],[13.0446,41.2275],[13.3244,41.2948],[13.5144,41.2297],[13.7219,41.2524],[13.8517,41.1473],[14.0213,40.9218],[14.0523,40.8376],[14.2035,40.8012],[14.2942,40.8388],[14.4741,40.7297],[14.3797,40.6339],[14.5442,40.6136],[14.7522,40.6767],[14.8888,40.5731],[14.9983,40.3976],[14.9111,40.2416],[15.1272,40.1696],[15.2831,40.0299],[15.4101,39.994],[15.6102,40.0732],[15.7819,39.8686],[15.8064,39.6955],[15.8675,39.5639],[15.9954,39.4388],[16.083,39.0753],[16.2201,38.8991],[16.2151,38.8142],[16.1209,38.7209],[16.0026,38.7254],[15.8445,38.6604],[15.9048,38.4739],[15.7865,38.278],[15.6506,38.241],[15.6275,38.1074],[15.6658,37.9669],[15.7615,37.9252],[16.09,37.9492],[16.1694,38.1432],[16.3399,38.3008],[16.5696,38.4295],[16.5388,38.7233],[16.6106,38.8166],[16.8386,38.9182],[17.1277,38.9288],[17.1724,39.0052],[17.1245,39.0909],[17.1222,39.3383],[17.1587,39.4062],[16.8462,39.5527],[16.7498,39.62],[16.6248,39.6253],[16.5156,39.6896],[16.4917,39.8055],[16.6316,39.9662],[16.6047,40.0845],[16.7376,40.211],[16.9121,40.4452],[17.0496,40.5191],[17.2474,40.5028],[17.2129,40.4062],[17.5121,40.3037],[17.8477,40.29],[17.9972,40.1204],[18.0073,39.9861],[18.2113,39.8393],[18.384,39.8139],[18.4341,40.0225],[18.5174,40.1142],[18.4373,40.2679],[18.2383,40.4577],[18.0374,40.557],[18.007,40.6507],[17.4761,40.8301],[17.2764,40.9802],[17.0571,41.0819],[16.5939,41.207],[16.0217,41.4278],[15.9118,41.5029],[15.9253,41.64],[16.1929,41.7909],[16.1405,41.9199],[16.0271,41.9441],[15.4461,41.9069],[15.1234,41.9343],[14.9937,42.0106],[14.7407,42.0846],[14.7171,42.1601],[14.5602,42.2257],[14.3874,42.373],[14.2206,42.4702],[14.0754,42.5988],[13.9447,42.7983],[13.8348,43.1273],[13.617,43.5313],[13.2533,43.7032],[12.9473,43.8976],[12.7103,43.9829],[12.4788,44.1394],[12.3688,44.2507],[12.2837,44.4876],[12.2536,44.7513],[12.4446,44.8205],[12.527,44.9433],[12.3762,45.039],[12.2961,45.2266],[12.1688,45.2622],[12.2727,45.4636],[12.4419,45.5303],[12.4878,45.4567],[12.9439,45.6286],[13.085,45.6419],[13.1314,45.7689],[13.5078,45.7144],[13.5513,45.7924],[13.7262,45.7038],[13.7118,45.5932],[13.8584,45.6494],[13.7787,45.7434],[13.5813,45.8092],[13.6228,45.9664],[13.5094,45.9674],[13.5051,46.066],[13.6374,46.1804],[13.4101,46.208],[13.3653,46.2903],[13.701,46.5197],[13.478,46.5636],[13.2311,46.5522],[13.0645,46.598],[12.8304,46.6096],[12.405,46.6901],[12.2691,46.7886],[12.1112,46.993],[11.9436,47.0382],[11.7464,46.9725],[11.5965,47.0004],[11.3138,46.9873],[11.0919,46.9124],[10.9969,46.7691],[10.7548,46.7908],[10.6625,46.861],[10.4538,46.8644],[10.3692,46.6724],[10.4666,46.6043],[10.2954,46.5511],[10.1921,46.6268],[10.0975,46.608],[10.0263,46.4463],[10.1334,46.414],[10.0427,46.2205],[9.899,46.3722],[9.6743,46.2918],[9.5597,46.2927],[9.4516,46.3704],[9.4379,46.492],[9.2632,46.4851],[9.269,46.3094],[9.2248,46.2312],[9.0021,46.0393],[9.0017,45.9361],[8.7679,45.9831],[8.8344,46.0664],[8.6018,46.1228],[8.4272,46.2514],[8.4416,46.4349],[8.0773,46.262],[8.1106,46.127],[7.9858,45.9993],[7.8312,45.9145],[7.5411,45.9841],[7.3618,45.9078],[7.1837,45.8805],[7.0221,45.9253]],[[12.4294,43.8921],[12.3856,43.9245],[12.4214,43.9672],[12.4903,43.9392],[12.4294,43.8921]],[[12.4531,41.9028],[12.453,41.9039],[12.454,41.9039],[12.454,41.9028],[12.4531,41.9028]]],[[[15.5287,38.3026],[15.3997,38.2326],[15.2454,38.2172],[15.0879,38.1282],[14.9071,38.1877],[14.7337,38.1576],[14.6346,38.0815],[14.2732,38.0151],[14.0205,38.0494],[13.7908,37.9736],[13.6511,38.001],[13.5135,38.1105],[13.3914,38.1032],[13.3102,38.2196],[13.1009,38.1901],[13.0274,38.0624],[12.9011,38.0281],[12.7254,38.1259],[12.5042,38.0112],[12.427,37.797],[12.489,37.6827],[12.6978,37.5627],[12.9426,37.5685],[13.0515,37.5007],[13.1741,37.487],[13.278,37.3937],[13.4526,37.2988],[13.5692,37.2735],[13.6834,37.1894],[13.8944,37.1008],[14.0886,37.1177],[14.2788,37.044],[14.3945,36.945],[14.4873,36.7934],[14.7808,36.6994],[14.8822,36.7307],[15.0736,36.6591],[15.094,36.7995],[15.1747,36.9441],[15.3294,37.0277],[15.1834,37.2075],[15.2175,37.285],[15.1107,37.3218],[15.0967,37.4945],[15.1638,37.5677],[15.2066,37.7477],[15.5003,38.0849],[15.5838,38.2404],[15.5287,38.3026]]],[[[9.7922,40.557],[9.6618,40.809],[9.5733,40.9064],[9.5462,41.1209],[9.2306,41.2626],[9.1576,41.1689],[9.0247,41.1289],[8.7644,40.9138],[8.641,40.8965],[8.5205,40.827],[8.3102,40.8507],[8.2332,40.9101],[8.1338,40.7289],[8.1406,40.6252],[8.312,40.5781],[8.4629,40.3145],[8.49,40.1045],[8.4014,40.0499],[8.3983,39.9053],[8.5552,39.8527],[8.4634,39.5769],[8.3869,39.4698],[8.4264,39.2833],[8.3718,39.2306],[8.6428,38.89],[8.7166,38.9326],[8.8415,38.8806],[9.0183,38.9953],[9.0183,39.1461],[9.0789,39.2123],[9.2525,39.2252],[9.4504,39.1244],[9.5578,39.1397],[9.6449,39.484],[9.6489,39.639],[9.7323,40.0839],[9.6546,40.1446],[9.6262,40.2631],[9.7494,40.3773],[9.8267,40.5196],[9.7922,40.557]]]]},"properties":{"code":"IT"}},
{"type":"Feature","geometry":{"type":"Polygon","coordinates":[[[10.4538,46.8644],[10.3679,46.9955],[10.1113,46.8471],[9.8624,46.9398],[9.858,47.0155],[9.5812,47.0569],[9.485,47.1763],[9.5212,47.2628],[9.6495,47.4097],[9.5475,47.5345],[9.2732,47.6501],[9.0166,47.6789],[8.9062,47.6518],[8.7976,47.72],[8.5582,47.8012],[8.2511,47.622],[8.0872,47.5674],[7.8197,47.5953],[7.6834,47.5443],[7.586,47.5846],[7.3785,47.4306],[7.2448,47.4177],[7.1037,47.4963],[6.8988,47.3957],[7.0443,47.3405],[6.9562,47.2452],[6.6654,47.0213],[6.4426,46.9442],[6.4292,46.7608],[6.1319,46.5956],[6.0642,46.4711],[6.1364,46.3593],[6.0897,46.2464],[6.1403,46.1502],[6.2812,46.2401],[6.2141,46.3155],[6.3016,46.3945],[6.4829,46.4486],[6.7627,46.4293],[6.8539,46.1226],[7.0221,45.9253],[7.1837,45.8805],[7.3618,45.9078],[7.5411,45.9841],[7.8312,45.9145],[7.9858,45.9993],[8.1106,46.127],[8.0773,46.262],[8.4416,46.4349],[8.4272,46.2514],[8.6018,46.1228],[8.8344,46.0664],[8.7679,45.9831],[9.0017,45.9361],[9.0021,46.0393],[9.2248,46.2312],[9.269,46.3094],[9.2632,46.4851],[9.4379,46.492],[9.4516,46.3704],[9.5597,46.2927],[9.6743,46.2918],[9.899,46.3722],[10.0427,46.2205],[10.1334,46.414],[10.0263,46.4463],[10.0975,46.608],[10.1921,46.6268],[10.2954,46.5511],[10.4666,46.6043],[10.3692,46.6724],[10.4538,46.8644]]]},"properties":{"code":"CH"}},
{"type":"Feature","geometry":{"type":"Polygon","coordinates":[[[9.5212,47.2628],[9.485,47.1763],[9.5812,47.0569],[9.6157,47.1068],[9.5212,47.2628]]]},"properties":{"code":"LI"}},
{"type":"Feature","geometry":{"type":"MultiPolygon","coordinates":[[[[16.5153,46.5017],[16.3441,46.547],[16.2349,46.4933],[16.1918,46.3698],[16.0389,46.3084],[15.6613,46.2153],[15.5899,46.1135],[15.698,46.0362],[15.6661,45.8317],[15.4513,45.8151],[15.2489,45.7118],[15.314,45.4505],[15.1393,45.43],[14.9226,45.5149],[14.8816,45.4698],[14.6685,45.534],[14.5561,45.6567],[14.4689,45.5256],[14.3728,45.4778],[14.2187,45.4972],[13.9698,45.463],[13.889,45.4236],[13.5895,45.4888],[13.5134,45.4362],[13.6438,45.0705],[13.7741,44.9638],[13.86,44.8257],[13.9727,44.8266],[14.0757,44.9837],[14.2326,45.1494],[14.3298,45.354],[14.5105,45.2998],[14.8274,45.114],[14.9216,44.9588],[14.8838,44.8615],[14.9014,44.6902],[15.308,44.3544],[15.1576,44.2803],[15.1445,44.1955],[15.4661,43.9217],[15.9312,43.6765],[15.918,43.5933],[16.0985,43.48],[16.3368,43.5512],[16.4338,43.5498],[16.6258,43.449],[16.8806,43.406],[17.0735,43.239],[17.3163,43.1273],[17.5156,42.9589],[17.5807,42.9421],[17.5874,43.0821],[17.4421,43.1524],[17.2676,43.3533],[17.2395,43.4784],[17.0846,43.5132],[16.7126,43.7715],[16.6786,43.8407],[16.404,44.0588],[16.3269,44.0824],[16.2158,44.2082],[16.1165,44.5215],[15.8956,44.7186],[15.8057,44.6967],[15.7173,44.7865],[15.78,45.1603],[15.8248,45.211],[15.9975,45.2185],[16.213,45.0315],[16.3406,45.0059],[16.4819,45.1995],[16.587,45.2209],[16.7863,45.1788],[16.9326,45.2788],[17.1871,45.1486],[17.5724,45.1204],[17.6847,45.164],[17.8357,45.0644],[17.9885,45.1438],[18.1925,45.1085],[18.2379,45.1575],[18.4661,45.074],[18.6167,45.0977],[18.789,45.0057],[18.7726,44.9425],[18.8896,44.8612],[19.0158,44.8656],[19.1317,44.9532],[19.0823,45.0849],[19.1417,45.1622],[19.2898,45.2363],[19.1041,45.2987],[18.9755,45.3911],[19.0181,45.5674],[18.845,45.8157],[18.9013,45.9312],[18.7633,45.884],[18.6743,45.9104],[18.5735,45.8167],[18.4117,45.7432],[18.2112,45.7854],[17.8898,45.7921],[17.6565,45.8454],[17.5911,45.9362],[17.3453,45.9557],[17.2486,46.0802],[16.9748,46.2106],[16.8377,46.3819],[16.5153,46.5017]]],[[[18.4374,42.5592],[18.2241,42.6281],[17.8585,42.817],[17.8262,42.8886],[17.6533,42.8909],[17.5189,42.9081],[17.2402,43.0228],[17.2019,42.9843],[17.4404,42.8734],[17.7288,42.8008],[17.8067,42.8119],[18.2175,42.6201],[18.2389,42.5591],[18.4964,42.4163],[18.4374,42.5592]]],[[[17.1318,42.9696],[16.8241,42.9621],[16.8514,42.9007],[17.1074,42.9143],[17.1318,42.9696]]],[[[16.5007,43.2842],[16.8462,43.2734],[16.8098,43.3532],[16.4939,43.3823],[16.5007,43.2842]]],[[[14.5139,44.6622],[14.4519,44.8509],[14.3298,44.8339],[14.4279,44.6566],[14.5139,44.6622]]],[[[14.7234,44.9433],[14.815,44.9775],[14.6653,45.0873],[14.6653,45.1618],[14.4251,45.0873],[14.7234,44.9433]]]]},"properties":{"code":"HR"}},
{"type":"Feature","geometry":{"type":"Polygon","coordinates":[[[13.5895,45.4888],[13.889,45.4236],[13.9698,45.463],[14.2187,45.4972],[14.3728,45.4778],[14.4689,45.5256],[14.5561,45.6567],[14.6685,45.534],[14.8816,45.4698],[14.9226,45.5149],[15.1393,45.43],[15.314,45.4505],[15.2489,45.7118],[15.4513,45.8151],[15.6661,45.8317],[15.698,46.0362],[15.5899,46.1135],[15.6613,46.2153],[16.0389,46.3084],[16.1918,46.3698],[16.2349,46.4933],[16.3441,46.547],[16.5153,46.5017],[16.3764,46.6291],[16.272,46.864],[16.094,46.8628],[15.9876,46.83],[15.9705,46.743],[15.6521,46.7108],[15.4627,46.6146],[15.3881,46.6456],[15.062,46.6496],[14.8504,46.6011],[14.7886,46.5066],[14.5022,46.4184],[14.1499,46.4401],[14.05,46.4844],[13.701,46.5197],[13.3653,46.2903],[13.4101,46.208],[13.6374,46.1804],[13.5051,46.066],[13.5094,45.9674],[13.6228,45.9664],[13.5813,45.8092],[13.7787,45.7434],[13.8584,45.6494],[13.7118,45.5932],[13.5895,45.4888]]]},"properties":{"code":"SI"}},
{"type":"Feature","geometry":{"type":"Polygon","coordinates":[[[12.4294,43.8921],[12.4903,43.9392],[12.4214,43.9672],[12.3856,43.9245],[12.4294,43.8921]]]},"properties":{"code":"SM"}},
{"type":"Feature","geometry":{"type":"Polygon","coordinates":[[[12.4531,41.9028],[12.454,41.9028],[12.454,41.9039],[12.453,41.9039],[12.4531,41.9028]]]},"properties":{"code":"VA"}}
]}